CCSDS_OMM_VERS = 2.0
CREATION_DATE  = 
ORIGINATOR     = 

OBJECT_NAME    = SOYUZ-MS 28
OBJECT_ID      = 2025-275A
CENTER_NAME    = EARTH
REF_FRAME      = TEME
TIME_SYSTEM    = UTC
MEAN_ELEMENT_THEORY = SGP/SGP4

EPOCH          = 2026-01-05T12:46:58.665216
MEAN_MOTION    = 15.49114570
ECCENTRICITY   = .00075622
INCLINATION    = 51.6326
RA_OF_ASC_NODE = 24.6699
ARG_OF_PERICENTER = 343.7680
MEAN_ANOMALY   = 16.3066

EPHEMERIS_TYPE = 0
CLASSIFICATION_TYPE = U
NORAD_CAT_ID   = 66664
ELEMENT_SET_NO = 999
REV_AT_EPOCH   = 128
BSTAR          = .23157891E-3
MEAN_MOTION_DOT = .12388E-3
MEAN_MOTION_DDOT = 0

CCSDS_OMM_VERS = 2.0
CREATION_DATE  = 
ORIGINATOR     = 

OBJECT_NAME    = 1998-067XS
OBJECT_ID      = 1998-067XS
CENTER_NAME    = EARTH
REF_FRAME      = TEME
TIME_SYSTEM    = UTC
MEAN_ELEMENT_THEORY = SGP/SGP4

EPOCH          = 2026-01-05T13:34:03.051840
MEAN_MOTION    = 15.51999087
ECCENTRICITY   = .00024633
INCLINATION    = 51.6316
RA_OF_ASC_NODE = 24.1401
ARG_OF_PERICENTER = 329.0837
MEAN_ANOMALY   = 31.0008

EPHEMERIS_TYPE = 0
CLASSIFICATION_TYPE = U
NORAD_CAT_ID   = 66906
ELEMENT_SET_NO = 999
REV_AT_EPOCH   = 531
BSTAR          = .44964582E-3
MEAN_MOTION_DOT = .27185E-3
MEAN_MOTION_DDOT = 0

CCSDS_OMM_VERS = 2.0
CREATION_DATE  = 
ORIGINATOR     = 

OBJECT_NAME    = 1998-067XT
OBJECT_ID      = 1998-067XT
CENTER_NAME    = EARTH
REF_FRAME      = TEME
TIME_SYSTEM    = UTC
MEAN_ELEMENT_THEORY = SGP/SGP4

EPOCH          = 2026-01-05T08:12:45.031104
MEAN_MOTION    = 15.54979680
ECCENTRICITY   = .00038767
INCLINATION    = 51.6312
RA_OF_ASC_NODE = 24.8999
ARG_OF_PERICENTER = 10.4657
MEAN_ANOMALY   = 349.6414

EPHEMERIS_TYPE = 0
CLASSIFICATION_TYPE = U
NORAD_CAT_ID   = 66907
ELEMENT_SET_NO = 999
REV_AT_EPOCH   = 528
BSTAR          = .13189991E-2
MEAN_MOTION_DOT = .90644E-3
MEAN_MOTION_DDOT = 0

CCSDS_OMM_VERS = 2.0
CREATION_DATE  = 
ORIGINATOR     = 

OBJECT_NAME    = 1998-067XU
OBJECT_ID      = 1998-067XU
CENTER_NAME    = EARTH
REF_FRAME      = TEME
TIME_SYSTEM    = UTC
MEAN_ELEMENT_THEORY = SGP/SGP4

EPOCH          = 2026-01-05T09:43:47.136288
MEAN_MOTION    = 15.54982540
ECCENTRICITY   = .0003785
INCLINATION    = 51.6305
RA_OF_ASC_NODE = 24.5711
ARG_OF_PERICENTER = 8.0344
MEAN_ANOMALY   = 352.0707

EPHEMERIS_TYPE = 0
CLASSIFICATION_TYPE = U
NORAD_CAT_ID   = 66908
ELEMENT_SET_NO = 999
REV_AT_EPOCH   = 529
BSTAR          = .13889244E-2
MEAN_MOTION_DOT = .95543E-3
MEAN_MOTION_DDOT = 0

CCSDS_OMM_VERS = 2.0
CREATION_DATE  = 
ORIGINATOR     = 

OBJECT_NAME    = SILVERSAT
OBJECT_ID      = 1998-067XV
CENTER_NAME    = EARTH
REF_FRAME      = TEME
TIME_SYSTEM    = UTC
MEAN_ELEMENT_THEORY = SGP/SGP4

EPOCH          = 2026-01-05T12:42:03.207456
MEAN_MOTION    = 15.55546038
ECCENTRICITY   = .0003947
INCLINATION    = 51.6315
RA_OF_ASC_NODE = 23.8985
ARG_OF_PERICENTER = 17.1564
MEAN_ANOMALY   = 342.9559

EPHEMERIS_TYPE = 0
CLASSIFICATION_TYPE = U
NORAD_CAT_ID   = 66909
ELEMENT_SET_NO = 999
REV_AT_EPOCH   = 531
BSTAR          = .1424826E-2
MEAN_MOTION_DOT = .100146E-2
MEAN_MOTION_DDOT = 0

CCSDS_OMM_VERS = 2.0
CREATION_DATE  = 
ORIGINATOR     = 

OBJECT_NAME    = 1998-067XW
OBJECT_ID      = 1998-067XW
CENTER_NAME    = EARTH
REF_FRAME      = TEME
TIME_SYSTEM    = UTC
MEAN_ELEMENT_THEORY = SGP/SGP4

EPOCH          = 2026-01-05T08:03:54.153216
MEAN_MOTION    = 15.55248947
ECCENTRICITY   = .0003072
INCLINATION    = 51.6301
RA_OF_ASC_NODE = 24.8576
ARG_OF_PERICENTER = 348.0526
MEAN_ANOMALY   = 12.0391

EPHEMERIS_TYPE = 0
CLASSIFICATION_TYPE = U
NORAD_CAT_ID   = 66910
ELEMENT_SET_NO = 999
REV_AT_EPOCH   = 528
BSTAR          = .13658E-2
MEAN_MOTION_DOT = .94853E-3
MEAN_MOTION_DDOT = 0

CCSDS_OMM_VERS = 2.0
CREATION_DATE  = 
ORIGINATOR     = 

OBJECT_NAME    = 1998-067XX
OBJECT_ID      = 1998-067XX
CENTER_NAME    = EARTH
REF_FRAME      = TEME
TIME_SYSTEM    = UTC
MEAN_ELEMENT_THEORY = SGP/SGP4

EPOCH          = 2026-01-05T12:28:23.213568
MEAN_MOTION    = 15.56195124
ECCENTRICITY   = .00029795
INCLINATION    = 51.6303
RA_OF_ASC_NODE = 23.8342
ARG_OF_PERICENTER = 5.2842
MEAN_ANOMALY   = 354.8181

EPHEMERIS_TYPE = 0
CLASSIFICATION_TYPE = U
NORAD_CAT_ID   = 66911
ELEMENT_SET_NO = 999
REV_AT_EPOCH   = 530
BSTAR          = .16158451E-2
MEAN_MOTION_DOT = .116634E-2
MEAN_MOTION_DDOT = 0

CCSDS_OMM_VERS = 2.0
CREATION_DATE  = 
ORIGINATOR     = 

OBJECT_NAME    = 1998-067XY
OBJECT_ID      = 1998-067XY
CENTER_NAME    = EARTH
REF_FRAME      = TEME
TIME_SYSTEM    = UTC
MEAN_ELEMENT_THEORY = SGP/SGP4

EPOCH          = 2026-01-05T08:28:28.214112
MEAN_MOTION    = 15.53885560
ECCENTRICITY   = .00037004
INCLINATION    = 51.6318
RA_OF_ASC_NODE = 24.9729
ARG_OF_PERICENTER = 357.3172
MEAN_ANOMALY   = 2.7798

EPHEMERIS_TYPE = 0
CLASSIFICATION_TYPE = U
NORAD_CAT_ID   = 66912
ELEMENT_SET_NO = 999
REV_AT_EPOCH   = 527
BSTAR          = .10251697E-2
MEAN_MOTION_DOT = .67371E-3
MEAN_MOTION_DDOT = 0

